H1 CPF 01  gfz 2022 01 09 13  5092 terrasarx 
H2 0702601  6201 31698    2022 01 09 12 59 42 2022 01 14 00 00 42   120 1 1  0 0 0
H9
10 0 59592  15822.000000  0   -6022054.876  -2402465.093   2319821.147
10 0 59592  15942.000000  0   -5750819.744  -2101725.130   3148175.591
10 0 59592  16062.000000  0   -5373493.717  -1769910.171   3921088.791
10 0 59592  16182.000000  0   -4896218.673  -1414632.369   4624966.358
10 0 59592  16302.000000  0   -4327023.560  -1043789.445   5247443.026
10 0 59592  16422.000000  0   -3675681.666   -665392.639   5777598.012
10 0 59592  16542.000000  0   -2953534.982   -287395.713   6206144.290
10 0 59592  16662.000000  0   -2173288.514     82471.007   6525586.403
10 0 59592  16782.000000  0   -1348780.470    436856.209   6730344.536
10 0 59592  16902.000000  0    -494734.055    768931.372   6816845.905
10 0 59592  17022.000000  0     373505.859   1072521.026   6783582.766
10 0 59592  17142.000000  0    1240247.463   1342216.960   6631136.944
10 0 59592  17262.000000  0    2089734.687   1573474.927   6362170.212
10 0 59592  17382.000000  0    2906432.668   1762691.294   5981380.661
10 0 59592  17502.000000  0    3675313.123   1907259.395   5495426.428
10 0 59592  17622.000000  0    4382134.016   2005604.289   4912814.562
10 0 59592  17742.000000  0    5013707.392   2057196.316   4243758.962
10 0 59592  17862.000000  0    5558154.760   2062542.944   3500007.523
10 0 59592  17982.000000  0    6005140.110   2023156.667   2694635.283
10 0 59592  18102.000000  0    6346073.545   1941502.011   1841814.997
10 0 59592  18222.000000  0    6574286.179   1820921.702    956564.039
10 0 59592  18342.000000  0    6685165.808   1665542.896     54472.900
10 0 59592  18462.000000  0    6676252.764   1480167.883   -848577.791
10 0 59592  18582.000000  0    6547291.033   1270150.033  -1736706.104
10 0 59592  18702.000000  0    6300236.617   1041257.976  -2594314.872
10 0 59592  18822.000000  0    5939221.340    799532.945  -3406372.484
10 0 59592  18942.000000  0    5470472.776    551143.393  -4158679.642
10 0 59592  19062.000000  0    4902193.870    302239.537  -4838117.433
10 0 59592  19182.000000  0    4244406.326     58811.617  -5432870.701
10 0 59592  19302.000000  0    3508763.513   -173444.159  -5932625.041
10 0 59592  19422.000000  0    2708336.197   -389249.811  -6328736.515
10 0 59592  19542.000000  0    1857374.467   -583857.781  -6614369.650
10 0 59592  19662.000000  0     971054.035   -753149.010  -6784603.895
10 0 59592  19782.000000  0      65208.053   -893715.497  -6836510.622
10 0 59592  19902.000000  0    -843950.958  -1002925.185  -6769196.896
10 0 59592  20022.000000  0   -1740113.928  -1078969.703  -6583819.442
10 0 59592  20142.000000  0   -2607161.726  -1120893.612  -6283566.865
10 0 59592  20262.000000  0   -3429448.283  -1128605.012  -5873609.458
10 0 59592  20382.000000  0   -4192078.716  -1102867.808  -5361021.026
10 0 59592  20502.000000  0   -4881180.745  -1045275.098  -4754668.309
10 0 59592  20622.000000  0   -5484161.099   -958204.166  -4065068.719
10 0 59592  20742.000000  0   -5989943.685   -844753.926  -3304218.555
10 0 59592  20862.000000  0   -6389184.618   -708665.266  -2485391.912
10 0 59592  20982.000000  0   -6674457.211   -554225.891  -1622913.053
10 0 59592  21102.000000  0   -6840403.378   -386162.476   -731906.435
10 0 59592  21222.000000  0   -6883845.998   -209520.490    171973.670
10 0 59592  21342.000000  0   -6803856.025    -29535.849   1072824.718
10 0 59592  21462.000000  0   -6601777.010    148497.420   1954783.430
10 0 59592  21582.000000  0   -6281203.254    319360.835   2802314.578
10 0 59592  21702.000000  0   -5847912.099    478043.299   3600493.411
10 0 59592  21822.000000  0   -5309751.872    619867.506   4335274.971
10 0 59592  21942.000000  0   -4676489.931    740607.321   4993744.337
10 0 59592  22062.000000  0   -3959624.799    836593.529   5564343.129
10 0 59592  22182.000000  0   -3172168.400    904805.818   6037069.510
10 0 59592  22302.000000  0   -2328401.738    942948.405   6403649.500
10 0 59592  22422.000000  0   -1443609.290    949508.840   6657676.685
10 0 59592  22542.000000  0    -533797.371    923798.583   6794717.136
10 0 59592  22662.000000  0     384596.029    865974.147   6812380.907
10 0 59592  22782.000000  0    1294997.176    777038.910   6710360.713
10 0 59592  22902.000000  0    2180994.301    658825.978   6490437.053
10 0 59592  23022.000000  0    3026632.419    513961.819   6156449.617
10 0 59592  23142.000000  0    3816702.016    345811.172   5714235.168
10 0 59592  23262.000000  0    4537015.725    158404.138   5171530.972
10 0 59592  23382.000000  0    5174668.109    -43653.621   4537845.506
10 0 59592  23502.000000  0    5718274.605   -255285.801   3824297.604
10 0 59592  23622.000000  0    6158185.073   -471062.518   3043425.064
10 0 59592  23742.000000  0    6486666.178   -685327.872   2208964.473
10 0 59592  23862.000000  0    6698045.675   -892335.151   1335606.109
10 0 59592  23982.000000  0    6788817.355  -1086386.476    438731.164
10 0 59592  24102.000000  0    6757705.125  -1261972.890   -465866.655
10 0 59592  24222.000000  0    6605679.738  -1413911.787  -1362269.344
10 0 59592  24342.000000  0    6335930.249  -1537477.316  -2234723.068
10 0 59592  24462.000000  0    5953790.795  -1628520.994  -3067922.480
10 0 59592  24582.000000  0    5466625.439  -1683579.528  -3847283.184
10 0 59592  24702.000000  0    4883675.143  -1699966.796  -4559197.604
10 0 59592  24822.000000  0    4215871.401  -1675848.298  -5191269.793
10 0 59592  24942.000000  0    3475620.482  -1610297.463  -5732525.256
10 0 59592  25062.000000  0    2676564.257  -1503332.001  -6173591.558
10 0 59592  25182.000000  0    1833324.872  -1355929.439  -6506849.496
10 0 59592  25302.000000  0     961235.840  -1170022.278  -6726554.499
10 0 59592  25422.000000  0      76065.221   -948474.089  -6828925.226
10 0 59592  25542.000000  0    -806264.547   -695035.835  -6812201.326
10 0 59592  25662.000000  0   -1669956.224   -414283.647  -6676670.492
10 0 59592  25782.000000  0   -2499614.616   -111537.953  -6424663.667
10 0 59592  25902.000000  0   -3280514.508    207233.914  -6060518.268
10 0 59592  26022.000000  0   -3998857.622    535530.906  -5590512.508
10 0 59592  26142.000000  0   -4642017.072    866445.698  -5022767.686
10 0 59592  26262.000000  0   -5198762.781   1192803.966  -4367120.004
10 0 59592  26382.000000  0   -5659466.164   1507315.215  -3634961.538
10 0 59592  26502.000000  0   -6016276.614   1802730.372  -2839050.587
10 0 59592  26622.000000  0   -6263267.074   2072002.472  -1993295.072
10 0 59592  26742.000000  0   -6396544.742   2308447.860  -1112511.715
10 0 59592  26862.000000  0   -6414323.224   2505903.636   -212164.152
10 0 59592  26982.000000  0   -6316952.794   2658876.503    691914.807
10 0 59592  27102.000000  0   -6106906.826   2762679.796   1583809.660
10 0 59592  27222.000000  0   -5788725.398   2813555.294   2447811.494
10 0 59592  27342.000000  0   -5368916.791   2808775.464   3268703.160
10 0 59592  27462.000000  0   -4855820.772   2746724.026   4032034.928
10 0 59592  27582.000000  0   -4259435.221   2626952.344   4724383.412
10 0 59592  27702.000000  0   -3591213.480   2450211.513   5333588.252
10 0 59592  27822.000000  0   -2863837.152   2218459.725   5848964.500
10 0 59592  27942.000000  0   -2090967.744   1934844.476   6261486.994
10 0 59592  28062.000000  0   -1286983.786   1603659.620   6563942.830
10 0 59592  28182.000000  0    -466709.417   1230278.908   6751050.157
10 0 59592  28302.000000  0     354859.065    821067.349   6819543.888
10 0 59592  28422.000000  0    1162826.516    383272.202   6768229.011
10 0 59592  28542.000000  0    1942667.650    -75104.807   6597999.960
10 0 59592  28662.000000  0    2680487.042   -545452.906   6311826.847
10 0 59592  28782.000000  0    3363267.262  -1018713.165   5914707.856
10 0 59592  28902.000000  0    3979101.608  -1485551.638   5413587.389
10 0 59592  29022.000000  0    4517405.890  -1936543.099   4817239.973
10 0 59592  29142.000000  0    4969105.963  -2362360.796   4136122.914
10 0 59592  29262.000000  0    5326799.424  -2753969.719   3382198.030
10 0 59592  29382.000000  0    5584885.401  -3102818.721   2568722.208
10 0 59592  29502.000000  0    5739657.825  -3401026.289   1710012.574
10 0 59592  29622.000000  0    5789362.457  -3641556.857    821191.317
10 0 59592  29742.000000  0    5734214.417  -3818381.999    -82087.934
10 0 59592  29862.000000  0    5576376.232  -3926622.338   -983923.629
10 0 59592  29982.000000  0    5319895.875  -3962666.489  -1868456.160
10 0 59592  30102.000000  0    4970606.786  -3924263.237  -2720154.670
10 0 59592  30222.000000  0    4535993.053  -3810586.529  -3524095.274
10 0 59592  30342.000000  0    4025023.615  -3622270.825  -4266225.311
10 0 59592  30462.000000  0    3447960.192  -3361416.859  -4933607.663
10 0 59592  30582.000000  0    2816144.361  -3031567.489  -5514641.216
10 0 59592  30702.000000  0    2141769.617  -2637656.170  -5999253.053
10 0 59592  30822.000000  0    1437644.385  -2185930.496  -6379062.749
10 0 59592  30942.000000  0     716948.226  -1683849.770  -6647518.160
10 0 59592  31062.000000  0      -7013.419  -1139959.181  -6799997.514
10 0 59592  31182.000000  0    -721050.568   -563744.973  -6833879.526
10 0 59592  31302.000000  0   -1412323.004     34527.925  -6748583.025
10 0 59592  31422.000000  0   -2068566.092    643994.450  -6545575.345
10 0 59592  31542.000000  0   -2678303.242   1253381.510  -6228349.431
10 0 59592  31662.000000  0   -3231042.758   1851211.247  -5802370.463
10 0 59592  31782.000000  0   -3717457.893   2426012.846  -5274992.524
10 0 59592  31902.000000  0   -4129547.930   2966540.768  -4655343.509
10 0 59592  32022.000000  0   -4460775.333   3461994.542  -3954177.137
10 0 59592  32142.000000  0   -4706175.266   3902235.815  -3183695.960
10 0 59592  32262.000000  0   -4862437.069   4277998.946  -2357346.697
99
